{
  "type": "FeatureCollection",
  "features": [
    {
      "type": "Feature",
      "properties": {
        "norad_id": 34350,
        "name": "IRIDIUM 33 DEB",
        "group": "iridium-33-debris",
        "lat": 54.720868879192196,
        "lon": 10.599312428459617,
        "alt_km": 738.1030112318876,
        "timestamp": "2025-12-06T18:50:10.554324+00:00",
        "meta_object_name": "IRIDIUM 33 DEB",
        "meta_object_id": "1997-051ES",
        "meta_epoch": "2025-12-06T00:22:25.470048",
        "meta_mean_motion": 14.4536345,
        "meta_eccentricity": 0.00221321,
        "meta_inclination": 86.328,
        "meta_ra_of_asc_node": 5.7251,
        "meta_arg_of_pericenter": 156.3145,
        "meta_mean_anomaly": 218.6789,
        "meta_ephemeris_type": 0,
        "meta_classification_type": "U",
        "meta_norad_cat_id": 34350,
        "meta_element_set_no": 999,
        "meta_rev_at_epoch": 88196,
        "meta_bstar": 0.00055324813,
        "meta_mean_motion_dot": 1.969e-05,
        "meta_mean_motion_ddot": 0,
        "tle_line1": "1 34350U 97051ES  25340.01557257  .00001969  00000+0  55325-3 0  9990",
        "tle_line2": "2 34350  86.3280   5.7251 0022132 156.3145 218.6789 14.45363450881967"
      },
      "geometry": {
        "type": "Point",
        "coordinates": [
          10.599312428459617,
          54.720868879192196
        ]
      }
    },
    {
      "type": "Feature",
      "properties": {
        "norad_id": 34366,
        "name": "IRIDIUM 33 DEB",
        "group": "iridium-33-debris",
        "lat": -18.459001238029632,
        "lon": -126.88325533815646,
        "alt_km": 705.8608252691301,
        "timestamp": "2025-12-06T18:50:10.554335+00:00",
        "meta_object_name": "IRIDIUM 33 DEB",
        "meta_object_id": "1997-051FJ",
        "meta_epoch": "2025-12-05T16:05:01.645152",
        "meta_mean_motion": 14.53959428,
        "meta_eccentricity": 0.00219245,
        "meta_inclination": 86.3705,
        "meta_ra_of_asc_node": 52.3872,
        "meta_arg_of_pericenter": 162.3006,
        "meta_mean_anomaly": 325.0781,
        "meta_ephemeris_type": 0,
        "meta_classification_type": "U",
        "meta_norad_cat_id": 34366,
        "meta_element_set_no": 999,
        "meta_rev_at_epoch": 88079,
        "meta_bstar": 0.0022295515,
        "meta_mean_motion_dot": 9.442e-05,
        "meta_mean_motion_ddot": 0,
        "tle_line1": "1 34366U 97051FJ  25339.67015793  .00009442  00000+0  22296-2 0  9995",
        "tle_line2": "2 34366  86.3705  52.3872 0021924 162.3006 325.0781 14.53959428880794"
      },
      "geometry": {
        "type": "Point",
        "coordinates": [
          -126.88325533815646,
          -18.459001238029632
        ]
      }
    },
    {
      "type": "Feature",
      "properties": {
        "norad_id": 34375,
        "name": "IRIDIUM 33 DEB",
        "group": "iridium-33-debris",
        "lat": 14.766444800239512,
        "lon": 4.1549060362978665,
        "alt_km": 763.2704091910855,
        "timestamp": "2025-12-06T18:50:10.554345+00:00",
        "meta_object_name": "IRIDIUM 33 DEB",
        "meta_object_id": "1997-051FT",
        "meta_epoch": "2025-12-05T15:16:24.636000",
        "meta_mean_motion": 14.17972992,
        "meta_eccentricity": 0.01027304,
        "meta_inclination": 86.433,
        "meta_ra_of_asc_node": 185.5598,
        "meta_arg_of_pericenter": 149.095,
        "meta_mean_anomaly": 276.7622,
        "meta_ephemeris_type": 0,
        "meta_classification_type": "U",
        "meta_norad_cat_id": 34375,
        "meta_element_set_no": 999,
        "meta_rev_at_epoch": 86611,
        "meta_bstar": 0.00068728218,
        "meta_mean_motion_dot": 1.5e-05,
        "meta_mean_motion_ddot": 0,
        "tle_line1": "1 34375U 97051FT  25339.63639625  .00001500  00000+0  68728-3 0  9995",
        "tle_line2": "2 34375  86.4330 185.5598 0102730 149.0950 276.7622 14.17972992866115"
      },
      "geometry": {
        "type": "Point",
        "coordinates": [
          4.1549060362978665,
          14.766444800239512
        ]
      }
    },
    {
      "type": "Feature",
      "properties": {
        "norad_id": 34376,
        "name": "IRIDIUM 33 DEB",
        "group": "iridium-33-debris",
        "lat": -55.559559008047195,
        "lon": 3.8000074253535083,
        "alt_km": 701.0058513064696,
        "timestamp": "2025-12-06T18:50:10.554356+00:00",
        "meta_object_name": "IRIDIUM 33 DEB",
        "meta_object_id": "1997-051FU",
        "meta_epoch": "2025-12-06T01:01:40.372896",
        "meta_mean_motion": 14.62422379,
        "meta_eccentricity": 0.00263989,
        "meta_inclination": 86.2983,
        "meta_ra_of_asc_node": 9.5506,
        "meta_arg_of_pericenter": 189.4299,
        "meta_mean_anomaly": 170.642,
        "meta_ephemeris_type": 0,
        "meta_classification_type": "U",
        "meta_norad_cat_id": 34376,
        "meta_element_set_no": 999,
        "meta_rev_at_epoch": 87909,
        "meta_bstar": 0.0022727198,
        "meta_mean_motion_dot": 0.00011586,
        "meta_mean_motion_ddot": 0,
        "tle_line1": "1 34376U 97051FU  25340.04282839  .00011586  00000+0  22727-2 0  9997",
        "tle_line2": "2 34376  86.2983   9.5506 0026398 189.4299 170.6420 14.62422379879099"
      },
      "geometry": {
        "type": "Point",
        "coordinates": [
          3.8000074253535083,
          -55.559559008047195
        ]
      }
    },
    {
      "type": "Feature",
      "properties": {
        "norad_id": 34486,
        "name": "IRIDIUM 33 DEB",
        "group": "iridium-33-debris",
        "lat": 7.303188500747921,
        "lon": -165.69042538244364,
        "alt_km": 576.2714129416545,
        "timestamp": "2025-12-06T18:50:10.554366+00:00",
        "meta_object_name": "IRIDIUM 33 DEB",
        "meta_object_id": "1997-051GB",
        "meta_epoch": "2025-12-05T13:52:10.857216",
        "meta_mean_motion": 14.95311877,
        "meta_eccentricity": 0.0013161,
        "meta_inclination": 86.3929,
        "meta_ra_of_asc_node": 15.3294,
        "meta_arg_of_pericenter": 136.3567,
        "meta_mean_anomaly": 23.1276,
        "meta_ephemeris_type": 0,
        "meta_classification_type": "U",
        "meta_norad_cat_id": 34486,
        "meta_element_set_no": 999,
        "meta_rev_at_epoch": 88879,
        "meta_bstar": 0.0036168434,
        "meta_mean_motion_dot": 0.00040118,
        "meta_mean_motion_ddot": 0,
        "tle_line1": "1 34486U 97051GB  25339.57790344  .00040118  00000+0  36168-2 0  9997",
        "tle_line2": "2 34486  86.3929  15.3294 0013161 136.3567  23.1276 14.95311877888798"
      },
      "geometry": {
        "type": "Point",
        "coordinates": [
          -165.69042538244364,
          7.303188500747921
        ]
      }
    },
    {
      "type": "Feature",
      "properties": {
        "norad_id": 34487,
        "name": "IRIDIUM 33 DEB",
        "group": "iridium-33-debris",
        "lat": -49.288811154162026,
        "lon": -160.79761681390005,
        "alt_km": 751.764570136892,
        "timestamp": "2025-12-06T18:50:10.554376+00:00",
        "meta_object_name": "IRIDIUM 33 DEB",
        "meta_object_id": "1997-051GC",
        "meta_epoch": "2025-12-05T08:34:04.230624",
        "meta_mean_motion": 14.43201608,
        "meta_eccentricity": 0.00321216,
        "meta_inclination": 86.3441,
        "meta_ra_of_asc_node": 15.5556,
        "meta_arg_of_pericenter": 151.732,
        "meta_mean_anomaly": 223.5238,
        "meta_ephemeris_type": 0,
        "meta_classification_type": "U",
        "meta_norad_cat_id": 34487,
        "meta_element_set_no": 999,
        "meta_rev_at_epoch": 88142,
        "meta_bstar": 0.00035058691,
        "meta_mean_motion_dot": 1.205e-05,
        "meta_mean_motion_ddot": 0,
        "tle_line1": "1 34487U 97051GC  25339.35699341  .00001205  00000+0  35059-3 0  9992",
        "tle_line2": "2 34487  86.3441  15.5556 0032121 151.7320 223.5238 14.43201608881426"
      },
      "geometry": {
        "type": "Point",
        "coordinates": [
          -160.79761681390005,
          -49.288811154162026
        ]
      }
    },
    {
      "type": "Feature",
      "properties": {
        "norad_id": 34488,
        "name": "IRIDIUM 33 DEB",
        "group": "iridium-33-debris",
        "lat": 4.6739477214799905,
        "lon": 128.4565598690781,
        "alt_km": 491.1566328002327,
        "timestamp": "2025-12-06T18:50:10.554387+00:00",
        "meta_object_name": "IRIDIUM 33 DEB",
        "meta_object_id": "1997-051GD",
        "meta_epoch": "2025-12-05T15:20:16.790208",
        "meta_mean_motion": 15.26946078,
        "meta_eccentricity": 0.00151936,
        "meta_inclination": 86.3251,
        "meta_ra_of_asc_node": 309.323,
        "meta_arg_of_pericenter": 61.7168,
        "meta_mean_anomaly": 298.561,
        "meta_ephemeris_type": 0,
        "meta_classification_type": "U",
        "meta_norad_cat_id": 34488,
        "meta_element_set_no": 999,
        "meta_rev_at_epoch": 89131,
        "meta_bstar": 0.0066018309,
        "meta_mean_motion_dot": 0.00179045,
        "meta_mean_motion_ddot": 0,
        "tle_line1": "1 34488U 97051GD  25339.63908322  .00179045  00000+0  66018-2 0  9992",
        "tle_line2": "2 34488  86.3251 309.3230 0015193  61.7168 298.5610 15.26946078891313"
      },
      "geometry": {
        "type": "Point",
        "coordinates": [
          128.4565598690781,
          4.6739477214799905
        ]
      }
    }
  ]
}